[
  {
    "OBJECT_NAME": "STARLINK-30852",
    "OBJECT_ID": "23177Y",
    "EPOCH": "2025-11-11T07:13:37.778016",
    "MEAN_MOTION": 15.02542201,
    "ECCENTRICITY": 0.0001135,
    "INCLINATION": 43.0031,
    "RA_OF_ASC_NODE": 275.1395,
    "ARG_OF_PERICENTER": 268.6183,
    "MEAN_ANOMALY": 91.4529,
    "EPHEMERIS_TYPE": 0,
    "CLASSIFICATION_TYPE": "U",
    "NORAD_CAT_ID": 58373,
    "ELEMENT_SET_NO": 999,
    "REV_AT_EPOCH": 11040,
    "BSTAR": 0.00013318,
    "MEAN_MOTION_DOT": 1.596e-05,
    "MEAN_MOTION_DDOT": 0.0,
    "TLE_LINE1": "1 58373U 23177Y   25315.30113169  .00001596  00000+0  13318-3 0  9995",
    "TLE_LINE2": "2 58373  43.0031 275.1395 0001135 268.6183  91.4529 15.02542201110403",
    "COMMENT": "Grouped by shell and plane from TLE"
  }
]